COMMENT,ORIGINATOR,NORAD_CAT_ID,OBJECT_NAME,OBJECT_TYPE,CLASSIFICATION_TYPE,INTLDES,EPOCH,EPOCH_MICROSECONDS,MEAN_MOTION,ECCENTRICITY,INCLINATION,RA_OF_ASC_NODE,ARG_OF_PERICENTER,MEAN_ANOMALY,EPHEMERIS_TYPE,ELEMENT_SET_NO,REV_AT_EPOCH,BSTAR,MEAN_MOTION_DOT,MEAN_MOTION_DDOT,FILE,TLE_LINE0,TLE_LINE1,TLE_LINE2,OBJECT_ID,OBJECT_NUMBER,SEMIMAJOR_AXIS,PERIOD,APOGEE,PERIGEE,DECAYED
"GENERATED VIA SPACETRACK.ORG API","18 SPCS","55101","SPACEBEE-159","PAYLOAD","U","23001CW","2023-03-16 09:24:09","207072","15.16700632","0.0016266","97.4891","136.5117","328.2233","31.8017","0","999","1102","0.0015565","0.00030631","0","3862257","0 SPACEBEE-159","1 55101U 23001CW  23075.39177323  .00030631  00000-0  15565-2 0  9997","2 55101  97.4891 136.5117 0016266 328.2233  31.8017 15.16700632 11025","2023-001CW","55101","6893.957","94.943","527.036","504.609","0"
"GENERATED VIA SPACETRACK.ORG API","18 SPCS","55101","SPACEBEE-159","PAYLOAD","U","23001CW","2023-03-16 09:24:09","207072","15.16700632","0.0016266","97.4891","136.5117","328.2233","31.8017","0","999","1102","0.0015565","0.00030631","0","3862295","0 SPACEBEE-159","1 55101U 23001CW  23075.39177323  .00030631  00000-0  15565-2 0  9997","2 55101  97.4891 136.5117 0016266 328.2233  31.8017 15.16700632 11025","2023-001CW","55101","6893.957","94.943","527.036","504.609","0"
"GENERATED VIA SPACETRACK.ORG API","18 SPCS","55101","SPACEBEE-159","PAYLOAD","U","23001CW","2023-03-16 14:09:09","793152","15.16705953","0.0016527","97.4891","136.7067","327.2134","32.8073","0","999","1105","0.0011841","0.00023269","0","3862592","0 SPACEBEE-159","1 55101U 23001CW  23075.58969668  .00023269  00000-0  11841-2 0  9991","2 55101  97.4891 136.7067 0016527 327.2134  32.8073 15.16705953 11057","2023-001CW","55101","6893.941","94.943","527.200","504.413","0"
"GENERATED VIA SPACETRACK.ORG API","18 SPCS","55101","SPACEBEE-159","PAYLOAD","U","23001CW","2023-03-17 02:49:10","831008","15.16728238","0.0016467","97.4893","137.2283","325.2085","34.807","0","999","1113","0.0011257","0.00022128","0","3862949","0 SPACEBEE-159","1 55101U 23001CW  23076.11748647  .00022128  00000-0  11257-2 0  9997","2 55101  97.4893 137.2283 0016467 325.2085  34.8070 15.16728238 11130","2023-001CW","55101","6893.874","94.941","527.091","504.387","0"
"GENERATED VIA SPACETRACK.ORG API","18 SPCS","55101","SPACEBEE-159","PAYLOAD","U","23001CW","2023-03-17 02:49:10","831008","15.16728238","0.0016467","97.4893","137.2283","325.2085","34.807","0","999","1113","0.0011257","0.00022128","0","3863278","0 SPACEBEE-159","1 55101U 23001CW  23076.11748647  .00022128  00000-0  11257-2 0  9997","2 55101  97.4893 137.2283 0016467 325.2085  34.8070 15.16728238 11130","2023-001CW","55101","6893.874","94.941","527.091","504.387","0"
"GENERATED VIA SPACETRACK.ORG API","18 SPCS","55101","SPACEBEE-159","PAYLOAD","U","23001CW","2023-03-18 10:29:10","682880","15.16777756","0.0016358","97.4899","138.5322","320.3047","39.6988","0","999","1133","0.00093018","0.00018289","0","3864207","0 SPACEBEE-159","1 55101U 23001CW  23077.43692920  .00018289  00000-0  93018-3 0  9994","2 55101  97.4899 138.5322 0016358 320.3047  39.6988 15.16777756 11339","2023-001CW","55101","6893.724","94.938","526.865","504.312","0"
"GENERATED VIA SPACETRACK.ORG API","18 SPCS","55101","SPACEBEE-159","PAYLOAD","U","23001CW","2023-03-18 16:49:10","219872","15.16787917","0.0016272","97.4896","138.7928","319.5212","40.4809","0","999","1137","0.00090256","0.00017747","0","3864479","0 SPACEBEE-159","1 55101U 23001CW  23077.70081273  .00017747  00000-0  90256-3 0  9996","2 55101  97.4896 138.7928 0016272 319.5212  40.4809 15.16787917 11375","2023-001CW","55101","6893.693","94.937","526.775","504.341","0"
"GENERATED VIA SPACETRACK.ORG API","18 SPCS","55101","SPACEBEE-159","PAYLOAD","U","23001CW","2023-03-19 10:14:08","103552","15.16814709","0.0016235","97.4894","139.5098","316.8667","43.1293","0","999","1148","0.000907","0.00017848","0","3865049","0 SPACEBEE-159","1 55101U 23001CW  23078.42648268  .00017848  00000-0  90700-3 0  9995","2 55101  97.4894 139.5098 0016235 316.8667  43.1293 15.16814709 11482","2023-001CW","55101","6893.612","94.936","526.669","504.285","0"
"GENERATED VIA SPACETRACK.ORG API","18 SPCS","55101","SPACEBEE-159","PAYLOAD","U","23001CW","2023-03-19 14:59:07","294272","15.16825346","0.0016226","97.4893","139.7052","316.1422","43.8522","0","999","1151","0.00099638","0.00019624","0","3865030","0 SPACEBEE-159","1 55101U 23001CW  23078.62438998  .00019624  00000-0  99638-3 0  9997","2 55101  97.4893 139.7052 0016226 316.1422  43.8522 15.16825346 11510","2023-001CW","55101","6893.580","94.935","526.630","504.259","0"
"GENERATED VIA SPACETRACK.ORG API","18 SPCS","55101","SPACEBEE-159","PAYLOAD","U","23001CW","2023-03-19 21:19:06","109824","15.16834721","0.0016204","97.4892","139.9658","315.1286","44.8636","0","999","1155","0.00095721","0.00018853","0","3865354","0 SPACEBEE-159","1 55101U 23001CW  23078.88826516  .00018853  00000-0  95721-3 0  9994","2 55101  97.4892 139.9658 0016204 315.1286  44.8636 15.16834721 11554","2023-001CW","55101","6893.551","94.935","526.586","504.246","0"
"GENERATED VIA SPACETRACK.ORG API","18 SPCS","55101","SPACEBEE-159","PAYLOAD","U","23001CW","2023-03-20 09:59:03","265728","15.16856196","0.001615","97.4889","140.4873","313.1954","46.7929","0","999","1163","0.00099019","0.00019518","0","3865912","0 SPACEBEE-159","1 55101U 23001CW  23079.41601002  .00019518  00000-0  99019-3 0  9998","2 55101  97.4889 140.4873 0016150 313.1954  46.7929 15.16856196 11631","2023-001CW","55101","6893.486","94.933","526.484","504.218","0"
"GENERATED VIA SPACETRACK.ORG API","18 SPCS","55101","SPACEBEE-159","PAYLOAD","U","23001CW","2023-03-20 16:19:01","616448","15.16866812","0.0016144","97.4888","140.7479","312.1633","47.8228","0","999","1167","0.0009865","0.00019451","0","3866105","0 SPACEBEE-159","1 55101U 23001CW  23079.67987982  .00019451  00000-0  98650-3 0  9996","2 55101  97.4888 140.7479 0016144 312.1633  47.8228 15.16866812 11675","2023-001CW","55101","6893.454","94.933","526.448","504.190","0"
"GENERATED VIA SPACETRACK.ORG API","18 SPCS","55101","SPACEBEE-159","PAYLOAD","U","23001CW","2023-03-20 16:19:01","616448","15.16866812","0.0016144","97.4888","140.7479","312.1633","47.8228","0","999","1167","0.0009865","0.00019451","0","3866115","0 SPACEBEE-159","1 55101U 23001CW  23079.67987982  .00019451  00000-0  98650-3 0  9996","2 55101  97.4888 140.7479 0016144 312.1633  47.8228 15.16866812 11675","2023-001CW","55101","6893.454","94.933","526.448","504.190","0"
"GENERATED VIA SPACETRACK.ORG API","18 SPCS","55101","SPACEBEE-159","PAYLOAD","U","23001CW","2023-03-21 03:23:58","305120","15.1688603","0.0016183","97.4885","141.2041","310.2569","49.7248","0","999","1174","0.0010018","0.00019766","0","3866730","0 SPACEBEE-159","1 55101U 23001CW  23080.14164705  .00019766  00000-0  10018-2 0  9990","2 55101  97.4885 141.2041 0016183 310.2569  49.7248 15.16886030 11748","2023-001CW","55101","6893.396","94.931","526.416","504.105","0"
"GENERATED VIA SPACETRACK.ORG API","18 SPCS","55101","SPACEBEE-159","PAYLOAD","U","23001CW","2023-03-22 03:08:49","474752","15.16927834","0.0016202","97.4878","142.1818","306.2587","53.7149","0","999","1189","0.0010307","0.00020364","0","3867300","0 SPACEBEE-159","1 55101U 23001CW  23081.13112818  .00020364  00000-0  10307-2 0  9995","2 55101  97.4878 142.1818 0016202 306.2587  53.7149 15.16927834 11898","2023-001CW","55101","6893.269","94.929","526.302","503.966","0"
"GENERATED VIA SPACETRACK.ORG API","18 SPCS","55101","SPACEBEE-159","PAYLOAD","U","23001CW","2023-03-22 17:23:43","22400","15.16956319","0.0016161","97.4876","142.7681","303.9449","56.0248","0","999","1198","0.0011333","0.00022422","0","3868201","0 SPACEBEE-159","1 55101U 23001CW  23081.72480350  .00022422  00000-0  11333-2 0  9996","2 55101  97.4876 142.7681 0016161 303.9449  56.0248 15.16956319 11981","2023-001CW","55101","6893.183","94.927","526.188","503.908","0"
"GENERATED VIA SPACETRACK.ORG API","18 SPCS","55101","SPACEBEE-159","PAYLOAD","U","23001CW","2023-03-23 02:53:38","181984","15.16974233","0.0016192","97.4875","143.1593","302.4913","57.4755","0","999","1204","0.0010604","0.00020982","0","3868494","0 SPACEBEE-159","1 55101U 23001CW  23082.12058081  .00020982  00000-0  10604-2 0  9992","2 55101  97.4875 143.1593 0016192 302.4913  57.4755 15.16974233 12042","2023-001CW","55101","6893.128","94.926","526.155","503.832","0"
"GENERATED VIA SPACETRACK.ORG API","18 SPCS","55101","SPACEBEE-159","PAYLOAD","U","23001CW","2023-03-23 17:08:30","222816","15.17002104","0.0016134","97.4874","143.7458","300.2366","59.727","0","999","1213","0.0011667","0.00023117","0","3868778","0 SPACEBEE-159","1 55101U 23001CW  23082.71423869  .00023117  00000-0  11667-2 0  9990","2 55101  97.4874 143.7458 0016134 300.2366  59.7270 15.17002104 12138","2023-001CW","55101","6893.044","94.924","526.030","503.788","0"
"GENERATED VIA SPACETRACK.ORG API","18 SPCS","55101","SPACEBEE-159","PAYLOAD","U","23001CW","2023-03-23 21:53:27","234528","15.17020905","0.0016099","97.4872","143.9414","299.4342","60.5284","0","999","1216","0.0016677","0.00033135","0","3868816","0 SPACEBEE-159","1 55101U 23001CW  23082.91212077  .00033135  00000-0  16677-2 0  9996","2 55101  97.4872 143.9414 0016099 299.4342  60.5284 15.17020905 12160","2023-001CW","55101","6892.987","94.923","525.949","503.755","0"
"GENERATED VIA SPACETRACK.ORG API","18 SPCS","55101","SPACEBEE-159","PAYLOAD","U","23001CW","2023-03-24 02:38:24","108000","15.17034938","0.0016199","97.4871","144.1362","298.9033","61.0575","0","999","1219","0.0016864","0.00033524","0","3869191","0 SPACEBEE-159","1 55101U 23001CW  23083.11000125  .00033524  00000-0  16864-2 0  9998","2 55101  97.4871 144.1362 0016199 298.9033  61.0575 15.17034938 12199","2023-001CW","55101","6892.945","94.922","525.975","503.644","0"
